{"type": "FeatureCollection", "features": [ {"type": "Feature", "properties": {"norad_id": 34117, "name": "COSMOS 2251 DEB", "group": "cosmos-2251-debris", "lat": -73.06990010681872, "lon": -147.34696328386593, "alt_km": 791.1344365422437, "timestamp": "2025-12-24T05:51:20.003201+00:00", "meta": {"OBJECT_NAME": "COSMOS 2251 DEB", "OBJECT_ID": "1993-036KN", "EPOCH": "2025-12-23T23:37:47.139168", "MEAN_MOTION": 14.40055256, "ECCENTRICITY": 0.00550163, "INCLINATION": 74.0395, "RA_OF_ASC_NODE": 323.052, "ARG_OF_PERICENTER": 36.2731, "MEAN_ANOMALY": 324.2133, "EPHEMERIS_TYPE": 0, "CLASSIFICATION_TYPE": "U", "NORAD_CAT_ID": 34117, "ELEMENT_SET_NO": 999, "REV_AT_EPOCH": 88285, "BSTAR": 0.00064828578, "MEAN_MOTION_DOT": 2.055e-05, "MEAN_MOTION_DDOT": 0}, "tle": {"line1": "1 34117U 93036KN  25357.98457337  .00002055  00000+0  64829-3 0  9998", "line2": "2 34117  74.0395 323.0520 0055016  36.2731 324.2133 14.40055256882851"}}, "geometry": {"type": "Point", "coordinates": [-147.34696328386593, -73.06990010681872]}}, {"type": "Feature", "properties": {"norad_id": 34118, "name": "COSMOS 2251 DEB", "group": "cosmos-2251-debris", "lat": 51.31635605860336, "lon": -112.91079670039522, "alt_km": 537.5798810289743, "timestamp": "2025-12-24T05:51:20.003211+00:00", "meta": {"OBJECT_NAME": "COSMOS 2251 DEB", "OBJECT_ID": "1993-036KP", "EPOCH": "2025-12-23T21:38:31.938720", "MEAN_MOTION": 14.94292011, "ECCENTRICITY": 0.00601439, "INCLINATION": 73.9505, "RA_OF_ASC_NODE": 226.71, "ARG_OF_PERICENTER": 54.0866, "MEAN_ANOMALY": 320.0837, "EPHEMERIS_TYPE": 0, "CLASSIFICATION_TYPE": "U", "NORAD_CAT_ID": 34118, "ELEMENT_SET_NO": 999, "REV_AT_EPOCH": 89343, "BSTAR": 0.0014182977, "MEAN_MOTION_DOT": 0.00015786, "MEAN_MOTION_DDOT": 0}, "tle": {"line1": "1 34118U 93036KP  25357.90175855  .00015786  00000+0  14183-2 0  9995", "line2": "2 34118  73.9505 226.7100 0060143  54.0866 320.0837 14.94292011893432"}}, "geometry": {"type": "Point", "coordinates": [-112.91079670039522, 51.31635605860336]}}, {"type": "Feature", "properties": {"norad_id": 34120, "name": "COSMOS 2251 DEB", "group": "cosmos-2251-debris", "lat": 60.21948400206171, "lon": -13.820002741077715, "alt_km": 898.8862372369958, "timestamp": "2025-12-24T05:51:20.003221+00:00", "meta": {"OBJECT_NAME": "COSMOS 2251 DEB", "OBJECT_ID": "1993-036KR", "EPOCH": "2025-12-23T22:59:13.400736", "MEAN_MOTION": 13.98695984, "ECCENTRICITY": 0.01824391, "INCLINATION": 73.9902, "RA_OF_ASC_NODE": 196.7893, "ARG_OF_PERICENTER": 21.9884, "MEAN_ANOMALY": 90.8407, "EPHEMERIS_TYPE": 0, "CLASSIFICATION_TYPE": "U", "NORAD_CAT_ID": 34120, "ELEMENT_SET_NO": 999, "REV_AT_EPOCH": 86137, "BSTAR": 0.00028868184, "MEAN_MOTION_DOT": 4.54e-06, "MEAN_MOTION_DDOT": 0}, "tle": {"line1": "1 34120U 93036KR  25357.95779399  .00000454  00000+0  28868-3 0  9998", "line2": "2 34120  73.9902 196.7893 0182439  21.9884  90.8407 13.98695984861379"}}, "geometry": {"type": "Point", "coordinates": [-13.820002741077715, 60.21948400206171]}}, {"type": "Feature", "properties": {"norad_id": 34121, "name": "COSMOS 2251 DEB", "group": "cosmos-2251-debris", "lat": 46.658928832721756, "lon": 95.165382644587, "alt_km": 1024.7259054297701, "timestamp": "2025-12-24T05:51:20.003231+00:00", "meta": {"OBJECT_NAME": "COSMOS 2251 DEB", "OBJECT_ID": "1993-036KS", "EPOCH": "2025-12-23T23:36:42.910272", "MEAN_MOTION": 13.91969791, "ECCENTRICITY": 0.02409808, "INCLINATION": 73.9922, "RA_OF_ASC_NODE": 77.9013, "ARG_OF_PERICENTER": 281.0028, "MEAN_ANOMALY": 262.9151, "EPHEMERIS_TYPE": 0, "CLASSIFICATION_TYPE": "U", "NORAD_CAT_ID": 34121, "ELEMENT_SET_NO": 999, "REV_AT_EPOCH": 85281, "BSTAR": 0.0011896568, "MEAN_MOTION_DOT": 1.899e-05, "MEAN_MOTION_DDOT": 0}, "tle": {"line1": "1 34121U 93036KS  25357.98382998  .00001899  00000+0  11897-2 0  9994", "line2": "2 34121  73.9922  77.9013 0240980 281.0028 262.9151 13.91969791852811"}}, "geometry": {"type": "Point", "coordinates": [95.165382644587, 46.658928832721756]}}, {"type": "Feature", "properties": {"norad_id": 34122, "name": "COSMOS 2251 DEB", "group": "cosmos-2251-debris", "lat": 73.42871904916349, "lon": 170.64408170884153, "alt_km": 674.2623332264384, "timestamp": "2025-12-24T05:51:20.003241+00:00", "meta": {"OBJECT_NAME": "COSMOS 2251 DEB", "OBJECT_ID": "1993-036KT", "EPOCH": "2025-12-23T08:25:17.196672", "MEAN_MOTION": 14.65163713, "ECCENTRICITY": 0.00849402, "INCLINATION": 74.0366, "RA_OF_ASC_NODE": 98.2185, "ARG_OF_PERICENTER": 352.0858, "MEAN_ANOMALY": 63.7399, "EPHEMERIS_TYPE": 0, "CLASSIFICATION_TYPE": "U", "NORAD_CAT_ID": 34122, "ELEMENT_SET_NO": 999, "REV_AT_EPOCH": 88840, "BSTAR": 0.001044871, "MEAN_MOTION_DOT": 5.898e-05, "MEAN_MOTION_DDOT": 0}, "tle": {"line1": "1 34122U 93036KT  25357.35089348  .00005898  00000+0  10449-2 0  9994", "line2": "2 34122  74.0366  98.2185 0084940 352.0858  63.7399 14.65163713888401"}}, "geometry": {"type": "Point", "coordinates": [170.64408170884153, 73.42871904916349]}}, {"type": "Feature", "properties": {"norad_id": 34127, "name": "COSMOS 2251 DEB", "group": "cosmos-2251-debris", "lat": 45.68099844747987, "lon": 39.951038892996166, "alt_km": 863.4194979277199, "timestamp": "2025-12-24T05:51:20.003251+00:00", "meta": {"OBJECT_NAME": "COSMOS 2251 DEB", "OBJECT_ID": "1993-036KY", "EPOCH": "2025-12-23T20:24:42.683328", "MEAN_MOTION": 14.316388, "ECCENTRICITY": 0.01146896, "INCLINATION": 74.1797, "RA_OF_ASC_NODE": 23.7825, "ARG_OF_PERICENTER": 221.5549, "MEAN_ANOMALY": 319.5544, "EPHEMERIS_TYPE": 0, "CLASSIFICATION_TYPE": "U", "NORAD_CAT_ID": 34127, "ELEMENT_SET_NO": 999, "REV_AT_EPOCH": 86930, "BSTAR": 0.0015091896, "MEAN_MOTION_DOT": 4.299e-05, "MEAN_MOTION_DDOT": 0}, "tle": {"line1": "1 34127U 93036KY  25357.85049402  .00004299  00000+0  15092-2 0  9994", "line2": "2 34127  74.1797  23.7825 0114689 221.5549 319.5544 14.31638800869309"}}, "geometry": {"type": "Point", "coordinates": [39.951038892996166, 45.68099844747987]}}, {"type": "Feature", "properties": {"norad_id": 34128, "name": "COSMOS 2251 DEB", "group": "cosmos-2251-debris", "lat": -72.00563849566544, "lon": 155.3011207346261, "alt_km": 578.1666543301444, "timestamp": "2025-12-24T05:51:20.003262+00:00", "meta": {"OBJECT_NAME": "COSMOS 2251 DEB", "OBJECT_ID": "1993-036KZ", "EPOCH": "2025-12-23T05:22:25.639968", "MEAN_MOTION": 15.01543744, "ECCENTRICITY": 0.00259514, "INCLINATION": 73.9993, "RA_OF_ASC_NODE": 275.3212, "ARG_OF_PERICENTER": 24.9341, "MEAN_ANOMALY": 125.1839, "EPHEMERIS_TYPE": 0, "CLASSIFICATION_TYPE": "U", "NORAD_CAT_ID": 34128, "ELEMENT_SET_NO": 999, "REV_AT_EPOCH": 89324, "BSTAR": 0.0015705466, "MEAN_MOTION_DOT": 0.00020507, "MEAN_MOTION_DDOT": 0}, "tle": {"line1": "1 34128U 93036KZ  25357.22390787  .00020507  00000+0  15705-2 0  9992", "line2": "2 34128  73.9993 275.3212 0025951  24.9341 125.1839 15.01543744893246"}}, "geometry": {"type": "Point", "coordinates": [155.3011207346261, -72.00563849566544]}}, {"type": "Feature", "properties": {"norad_id": 34129, "name": "COSMOS 2251 DEB", "group": "cosmos-2251-debris", "lat": -21.50016764885309, "lon": 143.48653062336288, "alt_km": 670.0411825354413, "timestamp": "2025-12-24T05:51:20.003272+00:00", "meta": {"OBJECT_NAME": "COSMOS 2251 DEB", "OBJECT_ID": "1993-036LA", "EPOCH": "2025-12-23T07:47:43.113984", "MEAN_MOTION": 14.75918625, "ECCENTRICITY": 0.00334281, "INCLINATION": 74.0357, "RA_OF_ASC_NODE": 318.8101, "ARG_OF_PERICENTER": 37.072, "MEAN_ANOMALY": 323.2754, "EPHEMERIS_TYPE": 0, "CLASSIFICATION_TYPE": "U", "NORAD_CAT_ID": 34129, "ELEMENT_SET_NO": 999, "REV_AT_EPOCH": 61454, "BSTAR": 0.0015539975, "MEAN_MOTION_DOT": 0.00010762, "MEAN_MOTION_DDOT": 0}, "tle": {"line1": "1 34129U 93036LA  25357.32480456  .00010762  00000+0  15540-2 0  9996", "line2": "2 34129  74.0357 318.8101 0033428  37.0720 323.2754 14.75918625614542"}}, "geometry": {"type": "Point", "coordinates": [143.48653062336288, -21.50016764885309]}}, {"type": "Feature", "properties": {"norad_id": 34136, "name": "COSMOS 2251 DEB", "group": "cosmos-2251-debris", "lat": 5.260224213462972, "lon": -161.56906843241424, "alt_km": 581.594316130806, "timestamp": "2025-12-24T05:51:20.003282+00:00", "meta": {"OBJECT_NAME": "COSMOS 2251 DEB", "OBJECT_ID": "1993-036LH", "EPOCH": "2025-12-23T11:33:04.281984", "MEAN_MOTION": 14.80143431, "ECCENTRICITY": 0.00850751, "INCLINATION": 74.0197, "RA_OF_ASC_NODE": 21.4464, "ARG_OF_PERICENTER": 141.4704, "MEAN_ANOMALY": 290.1201, "EPHEMERIS_TYPE": 0, "CLASSIFICATION_TYPE": "U", "NORAD_CAT_ID": 34136, "ELEMENT_SET_NO": 999, "REV_AT_EPOCH": 90169, "BSTAR": 0.0003580446, "MEAN_MOTION_DOT": 2.855e-05, "MEAN_MOTION_DDOT": 0}, "tle": {"line1": "1 34136U 93036LH  25357.48129956  .00002855  00000+0  35804-3 0  9996", "line2": "2 34136  74.0197  21.4464 0085075 141.4704 290.1201 14.80143431901693"}}, "geometry": {"type": "Point", "coordinates": [-161.56906843241424, 5.260224213462972]}}, {"type": "Feature", "properties": {"norad_id": 34139, "name": "COSMOS 2251 DEB", "group": "cosmos-2251-debris", "lat": 66.72512925079674, "lon": 10.393241177614534, "alt_km": 718.0044589755516, "timestamp": "2025-12-24T05:51:20.003291+00:00", "meta": {"OBJECT_NAME": "COSMOS 2251 DEB", "OBJECT_ID": "1993-036LL", "EPOCH": "2025-12-23T16:20:14.564832", "MEAN_MOTION": 14.59195329, "ECCENTRICITY": 0.00424505, "INCLINATION": 74.0296, "RA_OF_ASC_NODE": 233.2073, "ARG_OF_PERICENTER": 302.5138, "MEAN_ANOMALY": 86.8427, "EPHEMERIS_TYPE": 0, "CLASSIFICATION_TYPE": "U", "NORAD_CAT_ID": 34139, "ELEMENT_SET_NO": 999, "REV_AT_EPOCH": 88309, "BSTAR": 0.0012715168, "MEAN_MOTION_DOT": 6.046e-05, "MEAN_MOTION_DDOT": 0}, "tle": {"line1": "1 34139U 93036LL  25357.68072413  .00006046  00000+0  12715-2 0  9997", "line2": "2 34139  74.0296 233.2073 0042450 302.5138  86.8427 14.59195329883098"}}, "geometry": {"type": "Point", "coordinates": [10.393241177614534, 66.72512925079674]}}]}